NORAD_CAT_ID,OBJECT_NAME,OBJECT_TYPE,EPOCH,MEAN_MOTION,ECCENTRICITY,INCLINATION,RA_OF_ASC_NODE,ARG_OF_PERICENTER,MEAN_ANOMALY,BSTAR,MEAN_MOTION_DOT,MEAN_MOTION_DDOT,TLE_LINE0,TLE_LINE1,TLE_LINE2,SEMIMAJOR_AXIS,PERIOD,APOGEE,PERIGEE,DECAYED
54779.0,STARLINK-5447,PAYLOAD,2023-02-04 22:00:00,15.67204309,0.0001094,53.2142,63.206,82.5622,14.8698,-0.0085278,-0.00842508,0.0,0 STARLINK-5447,1 54779U 22175X   23035.91667824 -.00842508  00000-0 -85278-2 0  9996,2 54779  53.2142  63.2060 0001094  82.5622  14.8698 15.67204309  7467,6745.044,91.883,367.647,366.171,0.0
54779.0,STARLINK-5447,PAYLOAD,2023-02-05 14:00:01,15.65963405,0.0001143,53.2143,59.9408,76.9079,182.519,-0.0099823,-0.00942488,0.0,0 STARLINK-5447,1 54779U 22175X   23036.58335648 -.00942488  00000-0 -99823-2 0  9995,2 54779  53.2143  59.9408 0001143  76.9079 182.5190 15.65963405  7562,6748.606,91.956,371.243,369.7,0.0
54779.0,STARLINK-5447,PAYLOAD,2023-02-05 22:00:00,15.65249519,0.0001099,53.2145,58.3077,84.3017,254.8896,-0.0091569,-0.00836295,0.0,0 STARLINK-5447,1 54779U 22175X   23036.91667824 -.00836295  00000-0 -91569-2 0  9993,2 54779  53.2145  58.3077 0001099  84.3017 254.8896 15.65249519  1309,6750.658,91.998,373.265,371.781,0.0
54779.0,STARLINK-5447,PAYLOAD,2023-02-06 14:00:01,15.64007718,0.000139,53.214,55.052,70.7871,65.6434,-0.010789,-0.00941863,0.0,0 STARLINK-5447,1 54779U 22175X   23037.58334491 -.00941863  00000-0 -10789-1 0  9990,2 54779  53.2140  55.0520 0001390  70.7871  65.6434 15.64007718  1300,6754.231,92.071,377.035,375.157,0.0
54779.0,STARLINK-5447,PAYLOAD,2023-02-06 22:00:00,15.63310465,0.0001305,53.2139,53.4237,88.8851,125.0207,-0.010146,-0.00868287,0.0,0 STARLINK-5447,1 54779U 22175X   23037.91667824 -.00868287  00000-0 -10146-1 0  9991,2 54779  53.2139  53.4237 0001305  88.8851 125.0207 15.63310465  7770,6756.239,92.112,378.986,377.223,0.0
54779.0,STARLINK-5447,PAYLOAD,2023-02-07 14:00:01,15.62052708,0.0001192,53.214,50.1776,76.8046,289.6535,-0.011621,-0.00939302,0.0,0 STARLINK-5447,1 54779U 22175X   23038.58334491 -.00939302  00000-0 -11621-1 0  9992,2 54779  53.2140  50.1776 0001192  76.8046 289.6535 15.62052708  7886,6759.865,92.186,382.536,380.925,0.0
54779.0,STARLINK-5447,PAYLOAD,2023-02-07 22:00:00,15.61358787,0.0001261,53.2144,48.5539,94.4294,347.1556,-0.010988,-0.00870767,0.0,0 STARLINK-5447,1 54779U 22175X   23038.91667824 -.00870767  00000-0 -10988-1 0  9992,2 54779  53.2144  48.5539 0001261  94.4294 347.1556 15.61358787  1305,6761.868,92.227,384.586,382.881,0.0
54779.0,STARLINK-5447,PAYLOAD,2023-02-08 14:00:01,15.60105486,0.0001324,53.2144,45.3171,91.5911,137.8514,-0.012693,-0.00950099,0.0,0 STARLINK-5447,1 54779U 22175X   23039.58334491 -.00950099  00000-0 -12693-1 0  9999,2 54779  53.2144  45.3171 0001324  91.5911 137.8514 15.60105486  1309,6765.489,92.301,388.25,386.458,0.0
54779.0,STARLINK-5447,PAYLOAD,2023-02-08 22:00:00,15.59410109,0.0001292,53.2146,43.6984,104.4562,197.7662,-0.011933,-0.00876555,0.0,0 STARLINK-5447,1 54779U 22175X   23039.91667824 -.00876555  00000-0 -11933-1 0  9995,2 54779  53.2146  43.6984 0001292 104.4562 197.7662 15.59410109  8095,6767.5,92.343,390.24,388.491,0.0
54779.0,STARLINK-5447,PAYLOAD,2023-02-09 12:00:00,15.58291304,0.0001109,53.2141,40.875,89.7572,247.9099,-0.01291,-0.00905785,0.0,0 STARLINK-5447,1 54779U 22175X   23040.50001157 -.00905785  00000-0 -12910-1 0  9997,2 54779  53.2141  40.8750 0001109  89.7572 247.9099 15.58291304  1305,6770.739,92.409,393.355,391.853,0.0
54779.0,STARLINK-5447,PAYLOAD,2023-02-09 20:00:01,15.57611228,0.0001097,53.2142,39.2604,97.0624,311.2326,-0.012624,-0.00866827,0.0,0 STARLINK-5447,1 54779U 22175X   23040.83334491 -.00866827  00000-0 -12624-1 0  9998,2 54779  53.2142  39.2604 0001097  97.0624 311.2326 15.57611228  8239,6772.71,92.449,395.318,393.832,0.0
54779.0,STARLINK-5447,PAYLOAD,2023-02-09 22:00:00,15.57463731,0.0001322,53.2142,38.8574,95.9872,59.8302,-0.012966,-0.00883802,0.0,0 STARLINK-5447,1 54779U 22175X   23040.91667824 -.00883802  00000-0 -12966-1 0  9997,2 54779  53.2142  38.8574 0001322  95.9872  59.8302 15.57463731  1307,6773.137,92.458,395.898,394.107,0.0
54779.0,STARLINK-5447,PAYLOAD,2023-02-10 02:00:01,15.57173697,0.0001145,53.2146,38.0527,94.3178,276.4056,-0.014116,-0.00945338,0.0,0 STARLINK-5447,1 54779U 22175X   23041.08334491 -.00945338  00000-0 -14116-1 0  9999,2 54779  53.2146  38.0527 0001145  94.3178 276.4056 15.57173697  8271,6773.978,92.475,396.619,395.068,0.0
54779.0,STARLINK-5447,PAYLOAD,2023-02-10 04:00:00,15.57002313,0.0001287,53.2145,37.6507,84.9477,33.1658,-0.014138,-0.00941188,0.0,0 STARLINK-5447,1 54779U 22175X   23041.16667824 -.00941188  00000-0 -14138-1 0  9990,2 54779  53.2145  37.6507 0001287  84.9477  33.1658 15.57002313  1306,6774.475,92.485,397.212,395.469,0.0
54779.0,STARLINK-5447,PAYLOAD,2023-02-10 16:00:00,15.56019768,0.000105,53.2148,35.2368,84.1175,317.2771,-0.014495,-0.00931036,0.0,0 STARLINK-5447,1 54779U 22175X   23041.66667824 -.00931036  00000-0 -14495-1 0  9992,2 54779  53.2148  35.2368 0001050  84.1175 317.2771 15.56019768  8369,6777.327,92.544,399.904,398.48,0.0
54779.0,STARLINK-5447,PAYLOAD,2023-02-10 22:00:00,15.55513243,0.0001102,53.2149,34.0303,94.2746,268.0999,-0.013977,-0.00885394,0.0,0 STARLINK-5447,1 54779U 22175X   23041.91667824 -.00885394  00000-0 -13977-1 0  9999,2 54779  53.2149  34.0303 0001102  94.2746 268.0999 15.55513243  1308,6778.798,92.574,401.41,399.916,0.0
54779.0,STARLINK-5447,PAYLOAD,2023-02-11 14:00:01,15.54255157,0.0001192,53.2151,30.8217,79.8511,56.3046,-0.016093,-0.00978785,0.0,0 STARLINK-5447,1 54779U 22175X   23042.58334491 -.00978785  00000-0 -16093-1 0  9993,2 54779  53.2151  30.8217 0001192  79.8511  56.3046 15.54255157  8503,6782.456,92.649,405.129,403.512,0.0
54779.0,STARLINK-5447,PAYLOAD,2023-02-11 22:00:00,15.53572281,0.0001276,53.2151,29.2177,96.2803,105.6071,-0.015355,-0.00903701,0.0,0 STARLINK-5447,1 54779U 22175X   23042.91667824 -.00903701  00000-0 -15355-1 0  9995,2 54779  53.2151  29.2177 0001276  96.2803 105.6071 15.53572281  1306,6784.443,92.69,407.174,405.442,0.0
54779.0,STARLINK-5447,PAYLOAD,2023-02-12 06:00:00,15.52896269,0.0001259,53.2149,27.6187,87.2462,179.5932,-0.015263,-0.00878771,0.0,0 STARLINK-5447,1 54779U 22175X   23043.25001157 -.00878771  00000-0 -15263-1 0  9990,2 54779  53.2149  27.6187 0001259  87.2462 179.5932 15.52896269  8619,6786.412,92.73,409.131,407.422,0.0
54779.0,STARLINK-5447,PAYLOAD,2023-02-12 14:00:01,15.52297747,0.0001099,53.2144,26.0182,88.418,242.5646,-0.017217,-0.00975207,0.0,0 STARLINK-5447,1 54779U 22175X   23043.58334491 -.00975207  00000-0 -17217-1 0  9999,2 54779  53.2144  26.0182 0001099  88.4180 242.5646 15.52297747  1302,6788.156,92.766,410.767,409.275,0.0
54779.0,STARLINK-5447,PAYLOAD,2023-02-12 22:00:00,15.51617575,0.0001125,53.2145,24.4193,93.0121,301.3526,-0.016442,-0.00901477,0.0,0 STARLINK-5447,1 54779U 22175X   23043.91667824 -.00901477  00000-0 -16442-1 0  9992,2 54779  53.2145  24.4193 0001125  93.0121 301.3526 15.51617575  8711,6790.14,92.806,412.769,411.241,0.0
54779.0,STARLINK-5447,PAYLOAD,2023-02-13 14:00:01,15.50171566,0.0001037,53.2145,21.229,74.0216,84.7742,-0.0079457,-0.00431777,0.0,0 STARLINK-5447,1 54779U 22175X   23044.58334491 -.00431777  00000-0 -79457-2 0  9994,2 54779  53.2145  21.2290 0001037  74.0216  84.7742 15.50171566  1304,6794.362,92.893,416.931,415.522,0.0
54779.0,STARLINK-5447,PAYLOAD,2023-02-13 22:00:00,15.4988198,0.000106,53.2147,19.6345,89.5638,130.2891,0.00038052,0.00021201,0.0,0 STARLINK-5447,1 54779U 22175X   23044.91667824  .00021201  00000-0  38052-3 0  9992,2 54779  53.2147  19.6345 0001060  89.5638 130.2891 15.49881980  8869,6795.208,92.91,417.793,416.353,0.0
54779.0,STARLINK-5447,PAYLOAD,2023-02-14 14:00:01,15.49894626,8.03e-05,53.2149,16.4492,90.4362,251.25,-0.00048258,-0.00027751,0.0,0 STARLINK-5447,1 54779U 22175X   23045.58334491 -.00027751  00000-0 -48258-3 0  9994,2 54779  53.2149  16.4492 0000803  90.4362 251.2500 15.49894626  8972,6795.171,92.91,417.582,416.49,0.0
54779.0,STARLINK-5447,PAYLOAD,2023-02-14 20:00:01,15.49863827,8.96e-05,53.2149,15.2532,103.4563,193.9227,0.00070515,0.00039743,0.0,0 STARLINK-5447,1 54779U 22175X   23045.83334491  .00039743  00000-0  70515-3 0  9995,2 54779  53.2149  15.2532 0000896 103.4563 193.9227 15.49863827  1301,6795.261,92.911,417.735,416.517,0.0
54779.0,STARLINK-5447,PAYLOAD,2023-02-17 00:53:01,15.50605078,0.0006735,53.2154,4.72,233.5261,126.5129,0.0039939,0.00239447,0.0,0 STARLINK-5447,1 54779U 22175X   23048.03681787  .00239447  00000-0  39939-2 0  9990,2 54779  53.2154   4.7200 0006735 233.5261 126.5129 15.50605078  9350,6793.095,92.867,419.535,410.385,0.0
54779.0,STARLINK-5447,PAYLOAD,2023-02-17 02:24:16,15.53310244,0.0018081,53.2147,4.4047,270.5529,89.341,0.017052,0.01206525,0.0,0 STARLINK-5447,1 54779U 22175X   23048.10018530  .01206525  00000-0  17052-1 0  9991,2 54779  53.2147   4.4047 0018081 270.5529  89.3410 15.53310244  9364,6785.206,92.705,419.339,394.803,0.0
54779.0,STARLINK-5447,PAYLOAD,2023-02-17 22:00:00,15.45637831,0.0001444,53.2147,0.5502,95.0448,118.9271,-0.021,-0.00942769,0.0,0 STARLINK-5447,1 54779U 22175X   23048.91667824 -.00942769  00000-0 -21000-1 0  9992,2 54779  53.2147   0.5502 0001444  95.0448 118.9271 15.45637831  9495,6807.642,93.165,430.49,428.524,0.0
54779.0,STARLINK-5447,PAYLOAD,2023-02-18 14:00:01,15.44316309,0.0001252,53.2152,357.3876,92.7659,231.2141,-0.021465,-0.00922578,0.0,0 STARLINK-5447,1 54779U 22175X   23049.58334491 -.00922578  00000-0 -21465-1 0  9998,2 54779  53.2152 357.3876 0001252  92.7659 231.2141 15.44316309  1303,6811.525,93.245,434.243,432.537,0.0
54779.0,STARLINK-5447,PAYLOAD,2023-02-19 06:00:00,15.42992037,0.0001342,53.2155,354.2326,78.0768,352.7722,-0.021178,-0.00874135,0.0,0 STARLINK-5447,1 54779U 22175X   23050.25001157 -.00874135  00000-0 -21178-1 0  9990,2 54779  53.2155 354.2326 0001342  78.0768 352.7722 15.42992037  9690,6815.421,93.325,438.201,436.372,0.0
